[{"OBJECT_NAME":"STARLINK-6084","OBJECT_ID":"2023-046U","EPOCH":"2026-03-09T22:32:44.656800","MEAN_MOTION":15.02533583,"ECCENTRICITY":0.0001231,"INCLINATION":43.0002,"RA_OF_ASC_NODE":157.2391,"ARG_OF_PERICENTER":271.488,"MEAN_ANOMALY":88.5821,"EPHEMERIS_TYPE":0,"CLASSIFICATION_TYPE":"U","NORAD_CAT_ID":56111,"ELEMENT_SET_NO":999,"REV_AT_EPOCH":16210,"BSTAR":-0.00012692478,"MEAN_MOTION_DOT":-1.918e-5,"MEAN_MOTION_DDOT":0},{"OBJECT_NAME":"DELTA 1 R\/B(1)","OBJECT_ID":"1977-065B","EPOCH":"2026-03-09T10:44:41.161632","MEAN_MOTION":13.25850898,"ECCENTRICITY":0.08403971,"INCLINATION":29.062,"RA_OF_ASC_NODE":132.1032,"ARG_OF_PERICENTER":201.1162,"MEAN_ANOMALY":155.2629,"EPHEMERIS_TYPE":0,"CLASSIFICATION_TYPE":"U","NORAD_CAT_ID":10144,"ELEMENT_SET_NO":999,"REV_AT_EPOCH":34965,"BSTAR":0.00038185416,"MEAN_MOTION_DOT":1.376e-5,"MEAN_MOTION_DDOT":0}]
